      2.10          N: GNSS NAV DATA                        RINEX VERSION / TYPE
fic2rin                                 07/31/2024 00:59:02 PGM / RUN BY / DATE
                                                            END OF HEADER
29 24  7 30  1 59 44.0 -.586943700910D-03  .204636307899D-11  .000000000000D+00
     .200000000000D+01  .100968750000D+03  .419767485001D-08 -.158793533666D+01
     .515393912792D-05  .302824680693D-02  .509805977345D-05  .515356489372D+04
     .179984000000D+06 -.614672899246D-07 -.771597415558D-01 -.204890966415D-07
     .970724637000D+00  .286250000000D+03  .263646127794D+01 -.808497962900D-08
     .260725145963D-10  .100000000000D+01  .232500000000D+04  .000000000000D+00
     .240000000000D+01  .000000000000D+00 -.977888703346D-08  .200000000000D+01
     .172800000000D+06  .400000000000D+01
25 24  7 30  1 59 44.0  .498943030834D-03  .341060513165D-12  .000000000000D+00
     .270000000000D+02  .522187500000D+02  .476519848964D-08  .107152782063D+01
     .278092920780D-05  .116364442511D-01  .100620090961D-04  .515376141930D+04
     .179984000000D+06 -.214204192162D-06 -.121818437500D+01  .763684511185D-07
     .949681900463D+00  .181593750000D+03  .109138207960D+01 -.819784147300D-08
    -.529307762079D-09  .100000000000D+01  .232500000000D+04  .000000000000D+00
     .240000000000D+01  .000000000000D+00  .512227416039D-08  .270000000000D+02
     .172800000000D+06  .400000000000D+01
31 24  7 30  1 59 44.0 -.226358417422D-03  .341060513165D-12  .000000000000D+00
     .680000000000D+02 -.403125000000D+01  .514807158070D-08  .940941955335D+00
     .726431608200D-07  .105202555424D-01  .718049705029D-05  .515375284767D+04
     .179984000000D+06 -.260770320892D-07 -.222524198105D+01  .111758708954D-06
     .954126481118D+00  .239281250000D+03  .699992202788D+00 -.831820362943D-08
    -.285369029623D-09  .100000000000D+01  .232500000000D+04  .000000000000D+00
     .240000000000D+01  .000000000000D+00 -.135041773319D-07  .680000000000D+02
     .172800000000D+06  .400000000000D+01
2  24  7 30  2  0  0.0 -.389251392335D-03  .750333128963D-11  .000000000000D+00
     .940000000000D+02 -.206562500000D+02  .435661004172D-08 -.136293262441D+01
    -.812113285065D-06  .160392798716D-01  .310316681862D-05  .515369387627D+04
     .180000000000D+06 -.288709998131D-06  .809857022847D+00  .108033418655D-06
     .967199038076D+00  .327718750000D+03 -.115486153438D+01 -.838284917932D-08
     .692886004340D-10  .100000000000D+01  .232500000000D+04  .000000000000D+00
     .240000000000D+01  .000000000000D+00 -.176951289177D-07  .940000000000D+02
     .172800000000D+06  .400000000000D+01
1  24  7 30  2  0  0.0  .232595484704D-03 -.773070496507D-11  .000000000000D+00
     .660000000000D+02  .465937500000D+02  .607418158547D-08 -.131495218104D+00
     .263005495071D-05  .133375996957D-01  .912323594093D-05  .515359984398D+04
     .180000000000D+06 -.633299350739D-07 -.118392331488D+01  .171363353729D-06
     .953757745301D+00  .197843750000D+03  .103488674202D+01 -.825927260328D-08
    -.450018745087D-09  .100000000000D+01  .232500000000D+04  .000000000000D+00
     .340000000000D+01  .630000000000D+02 -.195577740669D-07  .660000000000D+02
     .172800000000D+06  .400000000000D+01
5  24  7 30  2  0  0.0 -.181453768164D-03 -.125055521494D-11  .000000000000D+00
     .230000000000D+02 -.103437500000D+03  .399195199511D-08 -.121450518284D+01
    -.503100454807D-05  .596304854844D-02  .817887485027D-05  .515365345955D+04
     .180000000000D+06  .931322574615D-08  .189388677608D+01  .130385160446D-06
     .972148192343D+00  .224875000000D+03  .129831068328D+01 -.785282710177D-08
     .232152527227D-09  .100000000000D+01  .232500000000D+04  .000000000000D+00
     .240000000000D+01  .000000000000D+00 -.107102096081D-07  .230000000000D+02
     .172800000000D+06  .400000000000D+01
11 24  7 30  2  0  0.0 -.713409390301D-03 -.625277607469D-11  .000000000000D+00
     .810000000000D+02 -.531875000000D+02  .425303429881D-08 -.227404603268D+01
    -.261887907982D-05  .152094045188D-02  .275485217571D-05  .515374811172D+04
     .180000000000D+06 -.838190317154D-07  .941225644409D+00  .335276126862D-07
     .966182576262D+00  .329843750000D+03 -.258772876739D+01 -.816426864599D-08
    -.425017703693D-10  .100000000000D+01  .232500000000D+04  .000000000000D+00
     .240000000000D+01  .000000000000D+00 -.884756445885D-08  .810000000000D+02
     .172800000000D+06  .400000000000D+01
6  24  7 30  2  0  0.0  .130950473249D-03 -.235331754084D-10  .000000000000D+00
     .800000000000D+02 -.482812500000D+02  .379801534544D-08  .279096420951D+01
    -.244192779064D-05  .294264475815D-02  .306405127048D-05  .515366683006D+04
     .180000000000D+06 -.298023223877D-07  .909571609640D+00  .372529029846D-08
     .989625295740D+00  .337093750000D+03 -.723644991450D+00 -.793140180329D-08
    -.110004582132D-09  .100000000000D+01  .232500000000D+04  .000000000000D+00
     .240000000000D+01  .000000000000D+00  .372529029846D-08  .800000000000D+02
     .172800000000D+06  .400000000000D+01
3  24  7 30  2  0  0.0  .479209702462D-03  .156887836056D-10  .000000000000D+00
     .850000000000D+02 -.844687500000D+02  .376229957202D-08  .136313214889D+01
    -.448152422905D-05  .572430994362D-02  .829435884953D-05  .515368854141D+04
     .180000000000D+06 -.838190317154D-07  .194607308845D+01 -.409781932831D-07
     .985233880454D+00  .230468750000D+03  .113456853604D+01 -.775103714752D-08
     .171792870148D-09  .100000000000D+01  .232500000000D+04  .000000000000D+00
     .340000000000D+01  .000000000000D+00  .139698386192D-08  .850000000000D+02
     .172800000000D+06  .400000000000D+01
7  24  7 30  2  0  0.0 -.604973174632D-04  .682121026330D-11  .000000000000D+00
     .480000000000D+02 -.671875000000D+01  .510949854541D-08  .188808474935D+01
    -.612810254097D-06  .186919373227D-01  .744313001633D-05  .515361686516D+04
     .180000000000D+06 -.292435288429D-06 -.224702619030D+01 -.378116965294D-06
     .950181661074D+00  .235281250000D+03 -.210732361556D+01 -.807069331963D-08
    -.132148361653D-09  .100000000000D+01  .232500000000D+04  .000000000000D+00
     .240000000000D+01  .000000000000D+00 -.111758708954D-07  .480000000000D+02
     .172800000000D+06  .400000000000D+01
4  24  7 30  2  0  0.0  .413912348449D-03  .761701812735D-11  .000000000000D+00
     .158000000000D+03 -.147812500000D+02  .457840499466D-08 -.188284974089D+01
    -.103563070297D-05  .291095871944D-02  .826455652714D-05  .515371689606D+04
     .180000000000D+06  .372529029846D-07  .302399675621D+01 -.447034835815D-07
     .965749296500D+00  .224718750000D+03 -.297807700411D+01 -.790461497323D-08
     .496092092798D-09  .100000000000D+01  .232500000000D+04  .000000000000D+00
     .240000000000D+01  .000000000000D+00 -.465661287308D-08  .670000000000D+03
     .172800000000D+06  .400000000000D+01
24 24  7 30  2  0  0.0 -.484935007989D-03 -.113686837722D-11  .000000000000D+00
     .310000000000D+02 -.415625000000D+01  .542951187525D-08  .286910418079D+01
    -.409781932831D-06  .155725998338D-01  .689178705215D-05  .515369805145D+04
     .180000000000D+06  .298023223877D-07 -.234518500468D+01 -.249594449997D-06
     .933965917829D+00  .230218750000D+03  .991977363725D+00 -.803747765035D-08
    -.101432796512D-09  .100000000000D+01  .232500000000D+04  .000000000000D+00
     .240000000000D+01  .000000000000D+00  .232830643654D-08  .310000000000D+02
     .172800000000D+06  .400000000000D+01
22 24  7 30  2  0  0.0 -.454471446574D-04 -.432009983342D-11  .000000000000D+00
     .740000000000D+02  .748125000000D+02  .452340270359D-08 -.104914110418D+01
     .387057662010D-05  .141989096301D-01  .942684710026D-05  .515370072556D+04
     .180000000000D+06 -.236555933952D-06 -.110978760494D+01 -.121071934700D-06
     .960527357751D+00  .199500000000D+03 -.112870756103D+01 -.814069623553D-08
    -.347514475373D-09  .100000000000D+01  .232500000000D+04  .000000000000D+00
     .240000000000D+01  .000000000000D+00 -.111758708954D-07  .740000000000D+02
     .172800000000D+06  .400000000000D+01
27 24  7 30  2  0  0.0 -.321813859046D-04 -.682121026330D-12  .000000000000D+00
     .750000000000D+02  .890000000000D+02  .426089176896D-08 -.149796169230D+01
     .468827784061D-05  .125246028183D-01  .527501106262D-05  .515368861198D+04
     .180000000000D+06  .283122062683D-06 -.160976041253D+00 -.819563865662D-07
     .961501257427D+00  .279031250000D+03  .798573197768D+00 -.795926010656D-08
    -.617882880159D-10  .100000000000D+01  .232500000000D+04  .000000000000D+00
     .240000000000D+01  .000000000000D+00  .186264514923D-08  .750000000000D+02
     .172800000000D+06  .400000000000D+01
32 24  7 30  2  0  0.0 -.609285198152D-03  .238742359215D-11  .000000000000D+00
     .830000000000D+02 -.227500000000D+02  .462876423518D-08 -.840584682297D+00
    -.977888703346D-06  .779389671516D-02  .846385955811D-05  .515370471573D+04
     .180000000000D+06  .000000000000D+00  .297887002420D+01  .124797224998D-06
     .962775789693D+00  .219937500000D+03 -.213077608539D+01 -.797140346952D-08
     .490377569051D-09  .100000000000D+01  .232500000000D+04  .000000000000D+00
     .240000000000D+01  .000000000000D+00  .931322574615D-09  .830000000000D+02
     .172800000000D+06  .400000000000D+01
16 24  7 30  2  0  0.0 -.222794245929D-03  .104591890704D-10  .000000000000D+00
     .420000000000D+02  .583750000000D+02  .450518765915D-08 -.612909793650D+00
     .311061739922D-05  .138374835951D-01  .897422432899D-05  .515359966660D+04
     .180000000000D+06  .335276126862D-07 -.111308350817D+01  .266358256340D-06
     .961196862210D+00  .206656250000D+03  .840177818447D+00 -.809783730743D-08
    -.452161691492D-09  .100000000000D+01  .232500000000D+04  .000000000000D+00
     .240000000000D+01  .000000000000D+00 -.102445483208D-07  .420000000000D+02
     .172800000000D+06  .400000000000D+01
